[{"OBJECT_NAME":"STARLINK-3897","OBJECT_ID":"2022-051E","EPOCH":"2026-03-09T11:39:14.679648","MEAN_MOTION":15.0883957,"ECCENTRICITY":0.00013185,"INCLINATION":53.2164,"RA_OF_ASC_NODE":129.8453,"ARG_OF_PERICENTER":93.6584,"MEAN_ANOMALY":266.4559,"EPHEMERIS_TYPE":0,"CLASSIFICATION_TYPE":"U","NORAD_CAT_ID":52537,"ELEMENT_SET_NO":999,"REV_AT_EPOCH":21141,"BSTAR":3.1875151e-5,"MEAN_MOTION_DOT":2.19e-6,"MEAN_MOTION_DDOT":0},{"OBJECT_NAME":"CZ-6A DEB","OBJECT_ID":"2024-140FD","EPOCH":"2026-03-09T14:27:44.906112","MEAN_MOTION":14.99694865,"ECCENTRICITY":0.0039811,"INCLINATION":89.0027,"RA_OF_ASC_NODE":280.8171,"ARG_OF_PERICENTER":188.2594,"MEAN_ANOMALY":171.7991,"EPHEMERIS_TYPE":0,"CLASSIFICATION_TYPE":"U","NORAD_CAT_ID":60778,"ELEMENT_SET_NO":999,"REV_AT_EPOCH":8450,"BSTAR":0.0048584,"MEAN_MOTION_DOT":0.00061368,"MEAN_MOTION_DDOT":0}]
